STARLINK-35775          
1 67038U 25294J   25361.25002315 -.01906044  00000+0 -23476-1 0  9999
2 67038  42.9992  93.6797 0001477 280.0953 147.2669 15.62577462  2550
STARLINK-35705          
1 67039U 25294K   25361.25002315 -.01900952  00000+0 -23429-1 0  9990
2 67039  42.9994  93.6697 0001402 280.4507 150.9625 15.62552870  2446
STARLINK-35786          
1 67040U 25294L   25361.25002315 -.01897076  00000+0 -23369-1 0  9997
2 67040  42.9996  93.6751 0001629 281.0032 148.4217 15.62557075  2443
STARLINK-35765          
1 67041U 25294M   25361.25002315 -.01895536  00000+0 -23361-1 0  9999
2 67041  42.9995  93.6646 0001427 279.9747 153.4046 15.62544949  2443
STARLINK-35773          
1 67042U 25294N   25361.25002315 -.01897732  00000+0 -23400-1 0  9994
2 67042  42.9993  93.6598 0001404 279.5090 155.9003 15.62535273  2631
STARLINK-35901          
1 67043U 25294P   25361.25002315 -.01906835  00000+0 -23533-1 0  9997
2 67043  42.9994  93.6540 0001345 280.4841 156.9463 15.62529446  2635
STARLINK-35884          
1 67044U 25294Q   25361.25002315 -.01905126  00000+0 -23516-1 0  9991
2 67044  42.9995  93.6499 0001425 279.8822 159.5471 15.62521160  2633
STARLINK-35891          
1 67045U 25294R   25361.25002315 -.01904786  00000+0 -23532-1 0  9991
2 67045  42.9995  93.6443 0001544 282.0113 159.5568 15.62498317  2559
STARLINK-35721          
1 67046U 25294S   25361.25002315 -.01921319  00000+0 -23772-1 0  9999
2 67046  42.9992  93.6383 0001270 279.8836 163.7417 15.62491841  2636
STARLINK-35779          
1 67047U 25294T   25361.25002315 -.01904716  00000+0 -23564-1 0  9991
2 67047  42.9991  93.6339 0001365 280.8765 164.8841 15.62464409  2447
STARLINK-35905          
1 67048U 25294U   25361.25002315 -.01923953  00000+0 -23828-1 0  9999
2 67048  42.9994  93.6284 0001133 277.9461 169.7509 15.62472293  2550
STARLINK-35877          
1 67049U 25294V   25361.25002315 -.01926632  00000+0 -23882-1 0  9997
2 67049  42.9994  93.6231 0001241 279.7344 170.0649 15.62454052  2635
