CCSDS_OMM_VERS = 2.0
CREATION_DATE  = 
ORIGINATOR     = 

OBJECT_NAME    = STARLINK-35775
OBJECT_ID      = 2025-294J
CENTER_NAME    = EARTH
REF_FRAME      = TEME
TIME_SYSTEM    = UTC
MEAN_ELEMENT_THEORY = SGP/SGP4

EPOCH          = 2025-12-27T06:00:02.000160
MEAN_MOTION    = 15.62577462
ECCENTRICITY   = .00014776
INCLINATION    = 42.9992
RA_OF_ASC_NODE = 93.6797
ARG_OF_PERICENTER = 280.0953
MEAN_ANOMALY   = 147.2669

EPHEMERIS_TYPE = 0
CLASSIFICATION_TYPE = U
NORAD_CAT_ID   = 67038
ELEMENT_SET_NO = 999
REV_AT_EPOCH   = 255
BSTAR          = -.23476385E-1
MEAN_MOTION_DOT = -.1906044E-1
MEAN_MOTION_DDOT = 0

CCSDS_OMM_VERS = 2.0
CREATION_DATE  = 
ORIGINATOR     = 

OBJECT_NAME    = STARLINK-35705
OBJECT_ID      = 2025-294K
CENTER_NAME    = EARTH
REF_FRAME      = TEME
TIME_SYSTEM    = UTC
MEAN_ELEMENT_THEORY = SGP/SGP4

EPOCH          = 2025-12-27T06:00:02.000160
MEAN_MOTION    = 15.62552870
ECCENTRICITY   = .00014023
INCLINATION    = 42.9994
RA_OF_ASC_NODE = 93.6697
ARG_OF_PERICENTER = 280.4507
MEAN_ANOMALY   = 150.9625

EPHEMERIS_TYPE = 0
CLASSIFICATION_TYPE = U
NORAD_CAT_ID   = 67039
ELEMENT_SET_NO = 999
REV_AT_EPOCH   = 244
BSTAR          = -.23428933E-1
MEAN_MOTION_DOT = -.1900952E-1
MEAN_MOTION_DDOT = 0

CCSDS_OMM_VERS = 2.0
CREATION_DATE  = 
ORIGINATOR     = 

OBJECT_NAME    = STARLINK-35786
OBJECT_ID      = 2025-294L
CENTER_NAME    = EARTH
REF_FRAME      = TEME
TIME_SYSTEM    = UTC
MEAN_ELEMENT_THEORY = SGP/SGP4

EPOCH          = 2025-12-27T06:00:02.000160
MEAN_MOTION    = 15.62557075
ECCENTRICITY   = .00016293
INCLINATION    = 42.9996
RA_OF_ASC_NODE = 93.6751
ARG_OF_PERICENTER = 281.0032
MEAN_ANOMALY   = 148.4217

EPHEMERIS_TYPE = 0
CLASSIFICATION_TYPE = U
NORAD_CAT_ID   = 67040
ELEMENT_SET_NO = 999
REV_AT_EPOCH   = 244
BSTAR          = -.23368851E-1
MEAN_MOTION_DOT = -.1897076E-1
MEAN_MOTION_DDOT = 0

CCSDS_OMM_VERS = 2.0
CREATION_DATE  = 
ORIGINATOR     = 

OBJECT_NAME    = STARLINK-35765
OBJECT_ID      = 2025-294M
CENTER_NAME    = EARTH
REF_FRAME      = TEME
TIME_SYSTEM    = UTC
MEAN_ELEMENT_THEORY = SGP/SGP4

EPOCH          = 2025-12-27T06:00:02.000160
MEAN_MOTION    = 15.62544949
ECCENTRICITY   = .00014277
INCLINATION    = 42.9995
RA_OF_ASC_NODE = 93.6646
ARG_OF_PERICENTER = 279.9747
MEAN_ANOMALY   = 153.4046

EPHEMERIS_TYPE = 0
CLASSIFICATION_TYPE = U
NORAD_CAT_ID   = 67041
ELEMENT_SET_NO = 999
REV_AT_EPOCH   = 244
BSTAR          = -.23360536E-1
MEAN_MOTION_DOT = -.1895536E-1
MEAN_MOTION_DDOT = 0

CCSDS_OMM_VERS = 2.0
CREATION_DATE  = 
ORIGINATOR     = 

OBJECT_NAME    = STARLINK-35773
OBJECT_ID      = 2025-294N
CENTER_NAME    = EARTH
REF_FRAME      = TEME
TIME_SYSTEM    = UTC
MEAN_ELEMENT_THEORY = SGP/SGP4

EPOCH          = 2025-12-27T06:00:02.000160
MEAN_MOTION    = 15.62535273
ECCENTRICITY   = .00014047
INCLINATION    = 42.9993
RA_OF_ASC_NODE = 93.6598
ARG_OF_PERICENTER = 279.5090
MEAN_ANOMALY   = 155.9003

EPHEMERIS_TYPE = 0
CLASSIFICATION_TYPE = U
NORAD_CAT_ID   = 67042
ELEMENT_SET_NO = 999
REV_AT_EPOCH   = 263
BSTAR          = -.23400297E-1
MEAN_MOTION_DOT = -.1897732E-1
MEAN_MOTION_DDOT = 0

CCSDS_OMM_VERS = 2.0
CREATION_DATE  = 
ORIGINATOR     = 

OBJECT_NAME    = STARLINK-35901
OBJECT_ID      = 2025-294P
CENTER_NAME    = EARTH
REF_FRAME      = TEME
TIME_SYSTEM    = UTC
MEAN_ELEMENT_THEORY = SGP/SGP4

EPOCH          = 2025-12-27T06:00:02.000160
MEAN_MOTION    = 15.62529446
ECCENTRICITY   = .00013451
INCLINATION    = 42.9994
RA_OF_ASC_NODE = 93.6540
ARG_OF_PERICENTER = 280.4841
MEAN_ANOMALY   = 156.9463

EPHEMERIS_TYPE = 0
CLASSIFICATION_TYPE = U
NORAD_CAT_ID   = 67043
ELEMENT_SET_NO = 999
REV_AT_EPOCH   = 263
BSTAR          = -.23533306E-1
MEAN_MOTION_DOT = -.1906835E-1
MEAN_MOTION_DDOT = 0

CCSDS_OMM_VERS = 2.0
CREATION_DATE  = 
ORIGINATOR     = 

OBJECT_NAME    = STARLINK-35884
OBJECT_ID      = 2025-294Q
CENTER_NAME    = EARTH
REF_FRAME      = TEME
TIME_SYSTEM    = UTC
MEAN_ELEMENT_THEORY = SGP/SGP4

EPOCH          = 2025-12-27T06:00:02.000160
MEAN_MOTION    = 15.62521160
ECCENTRICITY   = .00014258
INCLINATION    = 42.9995
RA_OF_ASC_NODE = 93.6499
ARG_OF_PERICENTER = 279.8822
MEAN_ANOMALY   = 159.5471

EPHEMERIS_TYPE = 0
CLASSIFICATION_TYPE = U
NORAD_CAT_ID   = 67044
ELEMENT_SET_NO = 999
REV_AT_EPOCH   = 263
BSTAR          = -.23516371E-1
MEAN_MOTION_DOT = -.1905126E-1
MEAN_MOTION_DDOT = 0

CCSDS_OMM_VERS = 2.0
CREATION_DATE  = 
ORIGINATOR     = 

OBJECT_NAME    = STARLINK-35891
OBJECT_ID      = 2025-294R
CENTER_NAME    = EARTH
REF_FRAME      = TEME
TIME_SYSTEM    = UTC
MEAN_ELEMENT_THEORY = SGP/SGP4

EPOCH          = 2025-12-27T06:00:02.000160
MEAN_MOTION    = 15.62498317
ECCENTRICITY   = .00015443
INCLINATION    = 42.9995
RA_OF_ASC_NODE = 93.6443
ARG_OF_PERICENTER = 282.0113
MEAN_ANOMALY   = 159.5568

EPHEMERIS_TYPE = 0
CLASSIFICATION_TYPE = U
NORAD_CAT_ID   = 67045
ELEMENT_SET_NO = 999
REV_AT_EPOCH   = 255
BSTAR          = -.23531715E-1
MEAN_MOTION_DOT = -.1904786E-1
MEAN_MOTION_DDOT = 0

CCSDS_OMM_VERS = 2.0
CREATION_DATE  = 
ORIGINATOR     = 

OBJECT_NAME    = STARLINK-35721
OBJECT_ID      = 2025-294S
CENTER_NAME    = EARTH
REF_FRAME      = TEME
TIME_SYSTEM    = UTC
MEAN_ELEMENT_THEORY = SGP/SGP4

EPOCH          = 2025-12-27T06:00:02.000160
MEAN_MOTION    = 15.62491841
ECCENTRICITY   = .00012706
INCLINATION    = 42.9992
RA_OF_ASC_NODE = 93.6383
ARG_OF_PERICENTER = 279.8836
MEAN_ANOMALY   = 163.7417

EPHEMERIS_TYPE = 0
CLASSIFICATION_TYPE = U
NORAD_CAT_ID   = 67046
ELEMENT_SET_NO = 999
REV_AT_EPOCH   = 263
BSTAR          = -.2377184E-1
MEAN_MOTION_DOT = -.1921319E-1
MEAN_MOTION_DDOT = 0

CCSDS_OMM_VERS = 2.0
CREATION_DATE  = 
ORIGINATOR     = 

OBJECT_NAME    = STARLINK-35779
OBJECT_ID      = 2025-294T
CENTER_NAME    = EARTH
REF_FRAME      = TEME
TIME_SYSTEM    = UTC
MEAN_ELEMENT_THEORY = SGP/SGP4

EPOCH          = 2025-12-27T06:00:02.000160
MEAN_MOTION    = 15.62464409
ECCENTRICITY   = .00013657
INCLINATION    = 42.9991
RA_OF_ASC_NODE = 93.6339
ARG_OF_PERICENTER = 280.8765
MEAN_ANOMALY   = 164.8841

EPHEMERIS_TYPE = 0
CLASSIFICATION_TYPE = U
NORAD_CAT_ID   = 67047
ELEMENT_SET_NO = 999
REV_AT_EPOCH   = 244
BSTAR          = -.23563982E-1
MEAN_MOTION_DOT = -.1904716E-1
MEAN_MOTION_DDOT = 0

CCSDS_OMM_VERS = 2.0
CREATION_DATE  = 
ORIGINATOR     = 

OBJECT_NAME    = STARLINK-35905
OBJECT_ID      = 2025-294U
CENTER_NAME    = EARTH
REF_FRAME      = TEME
TIME_SYSTEM    = UTC
MEAN_ELEMENT_THEORY = SGP/SGP4

EPOCH          = 2025-12-27T06:00:02.000160
MEAN_MOTION    = 15.62472293
ECCENTRICITY   = .00011333
INCLINATION    = 42.9994
RA_OF_ASC_NODE = 93.6284
ARG_OF_PERICENTER = 277.9461
MEAN_ANOMALY   = 169.7509

EPHEMERIS_TYPE = 0
CLASSIFICATION_TYPE = U
NORAD_CAT_ID   = 67048
ELEMENT_SET_NO = 999
REV_AT_EPOCH   = 255
BSTAR          = -.23828474E-1
MEAN_MOTION_DOT = -.1923953E-1
MEAN_MOTION_DDOT = 0

CCSDS_OMM_VERS = 2.0
CREATION_DATE  = 
ORIGINATOR     = 

OBJECT_NAME    = STARLINK-35877
OBJECT_ID      = 2025-294V
CENTER_NAME    = EARTH
REF_FRAME      = TEME
TIME_SYSTEM    = UTC
MEAN_ELEMENT_THEORY = SGP/SGP4

EPOCH          = 2025-12-27T06:00:02.000160
MEAN_MOTION    = 15.62454052
ECCENTRICITY   = .00012413
INCLINATION    = 42.9994
RA_OF_ASC_NODE = 93.6231
ARG_OF_PERICENTER = 279.7344
MEAN_ANOMALY   = 170.0649

EPHEMERIS_TYPE = 0
CLASSIFICATION_TYPE = U
NORAD_CAT_ID   = 67049
ELEMENT_SET_NO = 999
REV_AT_EPOCH   = 263
BSTAR          = -.23882259E-1
MEAN_MOTION_DOT = -.1926632E-1
MEAN_MOTION_DDOT = 0

